{
  "norad_id": 54644,
  "name": "ONEWEB-0539",
  "history": [
    {
      "epoch": "2026-04-13T02:47:38.958432Z",
      "apogee_km": 1179.2283705421614,
      "perigee_km": 1176.2770400232794,
      "latitude_deg": 2.9389272838851985e-05,
      "longitude_deg": 13.704453186247164,
      "height_km": 1181.046964259167,
      "semi_major_axis_km": 7555.889705282721,
      "eccentricity": 0.0001953,
      "inclination_deg": 87.92,
      "raan_deg": 256.9286,
      "arg_perigee_deg": 105.4305,
      "mean_anomaly_deg": 254.7045,
      "mean_motion_rev_day": 13.21826174
    },
    {
      "epoch": "2026-04-14T20:34:42.906720Z",
      "apogee_km": 1179.244903148564,
      "perigee_km": 1176.2648593905924,
      "latitude_deg": -1.5677904819982197e-05,
      "longitude_deg": 104.87447660499186,
      "height_km": 1181.0444462914484,
      "semi_major_axis_km": 7555.891881269578,
      "eccentricity": 0.0001972,
      "inclination_deg": 87.9202,
      "raan_deg": 256.5811,
      "arg_perigee_deg": 105.0924,
      "mean_anomaly_deg": 255.0428,
      "mean_motion_rev_day": 13.21825603
    },
    {
      "epoch": "2026-04-15T20:11:45.134304Z",
      "apogee_km": 1179.2603330812717,
      "perigee_km": 1176.247043874706,
      "latitude_deg": 3.063289077797513e-05,
      "longitude_deg": 109.44897112985073,
      "height_km": 1181.044977449958,
      "semi_major_axis_km": 7555.890688477988,
      "eccentricity": 0.0001994,
      "inclination_deg": 87.9204,
      "raan_deg": 256.3848,
      "arg_perigee_deg": 104.9916,
      "mean_anomaly_deg": 255.1439,
      "mean_motion_rev_day": 13.21825916
    },
    {
      "epoch": "2026-04-16T10:43:46.466112Z",
      "apogee_km": 1179.2598756899215,
      "perigee_km": 1176.2465866657276,
      "latitude_deg": 1.2845471833361146e-05,
      "longitude_deg": -109.27425553477147,
      "height_km": 1181.0401164370182,
      "semi_major_axis_km": 7555.890231177824,
      "eccentricity": 0.0001994,
      "inclination_deg": 87.9205,
      "raan_deg": 256.264,
      "arg_perigee_deg": 104.8183,
      "mean_anomaly_deg": 255.3172,
      "mean_motion_rev_day": 13.21826036
    },
    {
      "epoch": "2026-04-17T23:03:49.851360Z",
      "apogee_km": 1179.2720491885484,
      "perigee_km": 1176.2329193201922,
      "latitude_deg": 1.74673529892301e-05,
      "longitude_deg": 63.91734599258705,
      "height_km": 1181.0411704505889,
      "semi_major_axis_km": 7555.8894842543705,
      "eccentricity": 0.00020111,
      "inclination_deg": 87.9207,
      "raan_deg": 255.9619,
      "arg_perigee_deg": 104.7608,
      "mean_anomaly_deg": 255.3749,
      "mean_motion_rev_day": 13.21826232
    },
    {
      "epoch": "2026-04-18T15:24:51.308064Z",
      "apogee_km": 1179.2722718266104,
      "perigee_km": 1176.2317820821645,
      "latitude_deg": -3.511390717405999e-06,
      "longitude_deg": 177.8538884163049,
      "height_km": 1181.038138938195,
      "semi_major_axis_km": 7555.889026954387,
      "eccentricity": 0.0002012,
      "inclination_deg": 87.9209,
      "raan_deg": 255.826,
      "arg_perigee_deg": 104.6537,
      "mean_anomaly_deg": 255.482,
      "mean_motion_rev_day": 13.21826352
    },
    {
      "epoch": "2026-04-19T20:28:53.984640Z",
      "apogee_km": 1179.2813817123724,
      "perigee_km": 1176.2212469450678,
      "latitude_deg": 1.5554422655024464e-05,
      "longitude_deg": 100.40737951172287,
      "height_km": 1181.0304139086466,
      "semi_major_axis_km": 7555.888314328719,
      "eccentricity": 0.0002025,
      "inclination_deg": 87.9211,
      "raan_deg": 255.5844,
      "arg_perigee_deg": 104.2876,
      "mean_anomaly_deg": 255.8483,
      "mean_motion_rev_day": 13.21826539
    },
    {
      "epoch": "2026-04-20T09:11:55.166496Z",
      "apogee_km": 1179.2970452708514,
      "perigee_km": 1176.2056291165727,
      "latitude_deg": 5.309337905769541e-05,
      "longitude_deg": -90.97551298948481,
      "height_km": 1181.025628392268,
      "semi_major_axis_km": 7555.888337193712,
      "eccentricity": 0.00020457,
      "inclination_deg": 87.9211,
      "raan_deg": 255.4787,
      "arg_perigee_deg": 103.9581,
      "mean_anomaly_deg": 256.1781,
      "mean_motion_rev_day": 13.21826533
    },
    {
      "epoch": "2026-04-21T19:42:58.415616Z",
      "apogee_km": 1179.3199349134593,
      "perigee_km": 1176.1842409419705,
      "latitude_deg": -6.080860893914379e-05,
      "longitude_deg": 109.55645518696895,
      "height_km": 1181.035057247406,
      "semi_major_axis_km": 7555.889087927715,
      "eccentricity": 0.0002075,
      "inclination_deg": 87.9213,
      "raan_deg": 255.1918,
      "arg_perigee_deg": 104.0849,
      "mean_anomaly_deg": 256.0515,
      "mean_motion_rev_day": 13.21826336
    },
    {
      "epoch": "2026-04-22T19:20:00.593088Z",
      "apogee_km": 1179.3241321368523,
      "perigee_km": 1176.1808821018903,
      "latitude_deg": -3.078599745278482e-05,
      "longitude_deg": 114.1312541700813,
      "height_km": 1181.03252338409,
      "semi_major_axis_km": 7555.889507119371,
      "eccentricity": 0.000208,
      "inclination_deg": 87.9217,
      "raan_deg": 254.9956,
      "arg_perigee_deg": 103.9399,
      "mean_anomaly_deg": 256.1966,
      "mean_motion_rev_day": 13.21826226
    },
    {
      "epoch": "2026-04-23T02:36:01.179936Z",
      "apogee_km": 1179.321230127577,
      "perigee_km": 1176.1751106603278,
      "latitude_deg": 4.428088691092679e-05,
      "longitude_deg": 4.769972925003923,
      "height_km": 1181.027417508022,
      "semi_major_axis_km": 7555.885170393953,
      "eccentricity": 0.00020819,
      "inclination_deg": 87.9217,
      "raan_deg": 254.9352,
      "arg_perigee_deg": 103.8986,
      "mean_anomaly_deg": 256.238,
      "mean_motion_rev_day": 13.21827364
    },
    {
      "epoch": "2026-04-24T20:23:04.996032Z",
      "apogee_km": 1179.308428411282,
      "perigee_km": 1176.1908695799057,
      "latitude_deg": 2.554237359551242e-05,
      "longitude_deg": 95.9407454390287,
      "height_km": 1181.0176477680789,
      "semi_major_axis_km": 7555.8866489955935,
      "eccentricity": 0.0002063,
      "inclination_deg": 87.9223,
      "raan_deg": 254.5879,
      "arg_perigee_deg": 103.6015,
      "mean_anomaly_deg": 256.5349,
      "mean_motion_rev_day": 13.21826976
    },
    {
      "epoch": "2026-04-25T20:00:07.138080Z",
      "apogee_km": 1179.322364430087,
      "perigee_km": 1176.1776042672009,
      "latitude_deg": -5.710579272238695e-05,
      "longitude_deg": 100.5158906000208,
      "height_km": 1181.0261696102082,
      "semi_major_axis_km": 7555.886984348644,
      "eccentricity": 0.0002081,
      "inclination_deg": 87.9227,
      "raan_deg": 254.3919,
      "arg_perigee_deg": 103.789,
      "mean_anomaly_deg": 256.3475,
      "mean_motion_rev_day": 13.21826888
    },
    {
      "epoch": "2026-04-26T19:37:09.052896Z",
      "apogee_km": 1179.1308055882446,
      "perigee_km": 1176.3798563083928,
      "latitude_deg": -6.358472302143218e-06,
      "longitude_deg": 105.08809059569673,
      "height_km": 1180.8682778575183,
      "semi_major_axis_km": 7555.892330948318,
      "eccentricity": 0.00018204,
      "inclination_deg": 87.9235,
      "raan_deg": 254.192,
      "arg_perigee_deg": 98.8314,
      "mean_anomaly_deg": 261.3026,
      "mean_motion_rev_day": 13.21825485
    },
    {
      "epoch": "2026-04-27T19:14:11.448096Z",
      "apogee_km": 1179.3401821933667,
      "perigee_km": 1176.1591539061192,
      "latitude_deg": 9.398484474878708e-07,
      "longitude_deg": 109.66558225880212,
      "height_km": 1181.0091841639792,
      "semi_major_axis_km": 7555.886668049743,
      "eccentricity": 0.0002105,
      "inclination_deg": 87.9223,
      "raan_deg": 253.9994,
      "arg_perigee_deg": 103.0142,
      "mean_anomaly_deg": 257.1227,
      "mean_motion_rev_day": 13.21826971
    },
    {
      "epoch": "2026-04-28T20:40:13.749600Z",
      "apogee_km": 1179.3458428125587,
      "perigee_km": 1176.1512144110611,
      "latitude_deg": -1.3362564056264846e-05,
      "longitude_deg": 86.90015677567352,
      "height_km": 1181.005609719405,
      "semi_major_axis_km": 7555.88552861181,
      "eccentricity": 0.0002114,
      "inclination_deg": 87.9223,
      "raan_deg": 253.7881,
      "arg_perigee_deg": 102.8688,
      "mean_anomaly_deg": 257.2682,
      "mean_motion_rev_day": 13.2182727
    },
    {
      "epoch": "2026-04-29T20:17:15.821664Z",
      "apogee_km": 1179.3383344381664,
      "perigee_km": 1176.155796069882,
      "latitude_deg": 4.6241498462197475e-05,
      "longitude_deg": 91.47549996669443,
      "height_km": 1180.9939407156792,
      "semi_major_axis_km": 7555.884065254024,
      "eccentricity": 0.0002106,
      "inclination_deg": 87.9225,
      "raan_deg": 253.592,
      "arg_perigee_deg": 102.5418,
      "mean_anomaly_deg": 257.5952,
      "mean_motion_rev_day": 13.21827654
    },
    {
      "epoch": "2026-04-30T14:27:17.472384Z",
      "apogee_km": 1179.3475095928525,
      "perigee_km": 1176.149707685564,
      "latitude_deg": 2.860862357208697e-06,
      "longitude_deg": 178.0717228378505,
      "height_km": 1180.987992936417,
      "semi_major_axis_km": 7555.885608639208,
      "eccentricity": 0.00021161,
      "inclination_deg": 87.9226,
      "raan_deg": 253.4412,
      "arg_perigee_deg": 102.2068,
      "mean_anomaly_deg": 257.9303,
      "mean_motion_rev_day": 13.21827249
    },
    {
      "epoch": "2026-05-02T10:03:21.346848Z",
      "apogee_km": 1179.3789037014913,
      "perigee_km": 1176.114761885724,
      "latitude_deg": 4.4341078845350273e-05,
      "longitude_deg": -118.09715430408828,
      "height_km": 1180.971937327146,
      "semi_major_axis_km": 7555.883832793607,
      "eccentricity": 0.000216,
      "inclination_deg": 87.9231,
      "raan_deg": 253.0791,
      "arg_perigee_deg": 101.4464,
      "mean_anomaly_deg": 258.6913,
      "mean_motion_rev_day": 13.21827715
    }
  ]
}